{
  "norad_id": 37779,
  "name": "PAKSAT-1R",
  "history": [
    {
      "epoch": "2026-04-13T05:15:38.580192Z",
      "apogee_km": 35799.62137158221,
      "perigee_km": 35775.29098100762,
      "latitude_deg": -0.39440160122728024,
      "longitude_deg": 37.96601941114159,
      "height_km": 35785.27066732881,
      "semi_major_axis_km": 42165.59317629492,
      "eccentricity": 0.00028851,
      "inclination_deg": 0.519,
      "raan_deg": 85.0416,
      "arg_perigee_deg": 315.3115,
      "mean_anomaly_deg": 277.9726,
      "mean_motion_rev_day": 1.00268713
    },
    {
      "epoch": "2026-04-14T19:23:39.642144Z",
      "apogee_km": 35799.31801255967,
      "perigee_km": 35775.283712977885,
      "latitude_deg": 0.5053755324107213,
      "longitude_deg": 38.00503368060517,
      "height_km": 35794.721115762724,
      "semi_major_axis_km": 42165.43786276878,
      "eccentricity": 0.000285,
      "inclination_deg": 0.5232,
      "raan_deg": 85.0087,
      "arg_perigee_deg": 315.5581,
      "mean_anomaly_deg": 131.3138,
      "mean_motion_rev_day": 1.00269267
    },
    {
      "epoch": "2026-04-15T19:21:05.991840Z",
      "apogee_km": 35799.13469111175,
      "perigee_km": 35775.26910929423,
      "latitude_deg": 0.5061188184604206,
      "longitude_deg": 37.99494040885875,
      "height_km": 35794.5653371593,
      "semi_major_axis_km": 42165.338900202994,
      "eccentricity": 0.000283,
      "inclination_deg": 0.5259,
      "raan_deg": 84.9884,
      "arg_perigee_deg": 315.9292,
      "mean_anomaly_deg": 131.2987,
      "mean_motion_rev_day": 1.0026962
    },
    {
      "epoch": "2026-04-16T19:42:35.993088Z",
      "apogee_km": 35798.931710484045,
      "perigee_km": 35775.26014871737,
      "latitude_deg": 0.5085470723285217,
      "longitude_deg": 37.984695357382435,
      "height_km": 35795.28683384195,
      "semi_major_axis_km": 42165.23292960071,
      "eccentricity": 0.0002807,
      "inclination_deg": 0.5288,
      "raan_deg": 84.9731,
      "arg_perigee_deg": 316.2831,
      "mean_anomaly_deg": 137.3288,
      "mean_motion_rev_day": 1.00269998
    },
    {
      "epoch": "2026-04-17T22:41:16.204416Z",
      "apogee_km": 35798.727517054154,
      "perigee_km": 35775.21035087055,
      "latitude_deg": 0.3428761622073999,
      "longitude_deg": 37.956731169739136,
      "height_km": 35798.215506343025,
      "semi_major_axis_km": 42165.10593396235,
      "eccentricity": 0.00027887,
      "inclination_deg": 0.532,
      "raan_deg": 84.963,
      "arg_perigee_deg": 316.7559,
      "mean_anomaly_deg": 182.6359,
      "mean_motion_rev_day": 1.00270451
    },
    {
      "epoch": "2026-04-18T19:13:24.341952Z",
      "apogee_km": 35798.5730163492,
      "perigee_km": 35775.16300556711,
      "latitude_deg": 0.511912761310654,
      "longitude_deg": 37.97892137828753,
      "height_km": 35794.04548460755,
      "semi_major_axis_km": 42165.00501095816,
      "eccentricity": 0.0002776,
      "inclination_deg": 0.5345,
      "raan_deg": 84.9498,
      "arg_perigee_deg": 317.1752,
      "mean_anomaly_deg": 131.104,
      "mean_motion_rev_day": 1.00270811
    },
    {
      "epoch": "2026-04-19T19:10:51.043296Z",
      "apogee_km": 35798.42659747449,
      "perigee_km": 35775.05039050063,
      "latitude_deg": 0.5154945912754924,
      "longitude_deg": 37.97912284387845,
      "height_km": 35793.89322944895,
      "semi_major_axis_km": 42164.875493987565,
      "eccentricity": 0.0002772,
      "inclination_deg": 0.5373,
      "raan_deg": 84.9398,
      "arg_perigee_deg": 317.5768,
      "mean_anomaly_deg": 131.0553,
      "mean_motion_rev_day": 1.00271273
    },
    {
      "epoch": "2026-04-20T14:00:17.550144Z",
      "apogee_km": 35798.319059154885,
      "perigee_km": 35774.942068722085,
      "latitude_deg": 0.0993043625915122,
      "longitude_deg": 37.98236878734482,
      "height_km": 35779.200615023336,
      "semi_major_axis_km": 42164.76756393849,
      "eccentricity": 0.00027721,
      "inclination_deg": 0.5396,
      "raan_deg": 84.9398,
      "arg_perigee_deg": 317.9044,
      "mean_anomaly_deg": 53.8606,
      "mean_motion_rev_day": 1.00271658
    },
    {
      "epoch": "2026-04-21T19:05:40.556256Z",
      "apogee_km": 35798.28394504909,
      "perigee_km": 35774.612746835875,
      "latitude_deg": 0.5245379198468686,
      "longitude_deg": 37.98792336867085,
      "height_km": 35793.57663949494,
      "semi_major_axis_km": 42164.58534594248,
      "eccentricity": 0.0002807,
      "inclination_deg": 0.5431,
      "raan_deg": 84.9243,
      "arg_perigee_deg": 319.0127,
      "mean_anomaly_deg": 130.31,
      "mean_motion_rev_day": 1.00272308
    },
    {
      "epoch": "2026-04-22T13:55:09.369120Z",
      "apogee_km": 35798.280587349305,
      "perigee_km": 35774.37333628295,
      "latitude_deg": 0.1088952712132461,
      "longitude_deg": 37.993748913855406,
      "height_km": 35778.56889408315,
      "semi_major_axis_km": 42164.46396181613,
      "eccentricity": 0.0002835,
      "inclination_deg": 0.5454,
      "raan_deg": 84.9249,
      "arg_perigee_deg": 319.6533,
      "mean_anomaly_deg": 52.8142,
      "mean_motion_rev_day": 1.00272741
    },
    {
      "epoch": "2026-04-23T12:09:56.637792Z",
      "apogee_km": 35798.31496518889,
      "perigee_km": 35774.040126018685,
      "latitude_deg": -0.12480106260048562,
      "longitude_deg": 37.99064540217637,
      "height_km": 35774.77569530085,
      "semi_major_axis_km": 42164.31454560379,
      "eccentricity": 0.00028786,
      "inclination_deg": 0.5481,
      "raan_deg": 84.9183,
      "arg_perigee_deg": 320.7884,
      "mean_anomaly_deg": 26.3008,
      "mean_motion_rev_day": 1.00273274
    }
  ]
}